#cP2005  4 18 00 00 00.00000000    2880 *POS* WGS84 FIT DLR*
## 1319  86400.00000000    30.00000000 53478 0.0000000000000
+    1   L06  0  0  0  0  0  0  0  0  0  0  0  0  0  0  0  0
+          0  0  0  0  0  0  0  0  0  0  0  0  0  0  0  0  0
+          0  0  0  0  0  0  0  0  0  0  0  0  0  0  0  0  0
+          0  0  0  0  0  0  0  0  0  0  0  0  0  0  0  0  0
+          0  0  0  0  0  0  0  0  0  0  0  0  0  0  0  0  0
++         0  0  0  0  0  0  0  0  0  0  0  0  0  0  0  0  0
++         0  0  0  0  0  0  0  0  0  0  0  0  0  0  0  0  0
++         0  0  0  0  0  0  0  0  0  0  0  0  0  0  0  0  0
++         0  0  0  0  0  0  0  0  0  0  0  0  0  0  0  0  0
++         0  0  0  0  0  0  0  0  0  0  0  0  0  0  0  0  0
%c cc cc ccc ccc cccc cccc cccc cccc ccccc ccccc ccccc ccccc
%c cc cc ccc ccc cccc cccc cccc cccc ccccc ccccc ccccc ccccc
%f   .0000000   .000000000   .00000000000   .000000000000000
%f   .0000000   .000000000   .00000000000   .000000000000000
%i    0    0    0    0      0      0      0      0         0
%i    0    0    0    0      0      0      0      0         0
/* NOTE: CCCCCCCCCCCCCCCCCCCCCCCCCCCCCCCCCCCCCCCCCCCCCCCCCCC
/* CCCCCCCCCCCCCCCCCCCCCCCCCCCCCCCCCCCCCCCCCCCCCCCCCCCCCCCCC
/* CCCCCCCCCCCCCCCCCCCCCCCCCCCCCCCCCCCCCCCCCCCCCCCCCCCCCCCCC
/* CCCCCCCCCCCCCCCCCCCCCCCCCCCCCCCCCCCCCCCCCCCCCCCCCCCCCCCCC
*  2005 04 18 05 25 30.00000000
PL06    632.221736  -6121.857541   2736.956200 999999.000000
*  2005 04 18 05 26 00.00000000
PL06    621.082986  -6024.903895   2945.811576 999999.000000
*  2005 04 18 05 26 30.00000000
PL06    609.657683  -5920.855872   3151.198102 999999.000000
*  2005 04 18 05 27 00.00000000
PL06    597.989993  -5809.834290   3352.874114 999999.000000
*  2005 04 18 05 27 30.00000000
PL06    586.123820  -5691.968370   3550.602375 999999.000000
*  2005 04 18 05 28 00.00000000
PL06    574.102726  -5567.395573   3744.150356 999999.000000
*  2005 04 18 05 28 30.00000000
PL06    561.969842  -5436.261433   3933.290514 999999.000000
*  2005 04 18 05 29 00.00000000
PL06    549.767785  -5298.719379   4117.800564 999999.000000
*  2005 04 18 05 29 30.00000000
PL06    537.538569  -5154.930535   4297.463748 999999.000000
*  2005 04 18 05 30 00.00000000
PL06    525.323516  -5005.063518   4472.069083 999999.000000
*  2005 04 18 05 30 30.00000000
PL06    513.163179  -4849.294224   4641.411608 999999.000000
*  2005 04 18 05 31 00.00000000
PL06    501.097257  -4687.805616   4805.292617 999999.000000
*  2005 04 18 05 31 30.00000000
PL06    489.164525  -4520.787497   4963.519897 999999.000000
*  2005 04 18 05 32 00.00000000
PL06    477.402758  -4348.436277   5115.907945 999999.000000
*  2005 04 18 05 32 30.00000000
PL06    465.848659  -4170.954733   5262.278190 999999.000000
*  2005 04 18 05 33 00.00000000
PL06    454.537789  -3988.551751   5402.459202 999999.000000
*  2005 04 18 05 33 30.00000000
PL06    443.504498  -3801.442056   5536.286883 999999.000000
*  2005 04 18 05 34 00.00000000
PL06    432.781864  -3609.845955   5663.604643 999999.000000
*  2005 04 18 05 34 30.00000000
PL06    422.401621  -3413.989063   5784.263569 999999.000000
*  2005 04 18 05 35 00.00000000
PL06    412.394102  -3214.102038   5898.122587 999999.000000
*  2005 04 18 05 35 30.00000000
PL06    402.788175  -3010.420309   6005.048616 999999.000000
*  2005 04 18 05 36 00.00000000
PL06    393.611190  -2803.183800   6104.916731 999999.000000
*  2005 04 18 05 36 30.00000000
PL06    384.888931  -2592.636632   6197.610294 999999.000000
*  2005 04 18 05 37 00.00000000
PL06    376.645570  -2379.026825   6283.021083 999999.000000
*  2005 04 18 05 37 30.00000000
PL06    368.903632  -2162.606008   6361.049396 999999.000000
*  2005 04 18 05 38 00.00000000
PL06    361.683941  -1943.629133   6431.604149 999999.000000
*  2005 04 18 05 38 30.00000000
PL06    355.005581  -1722.354192   6494.602999 999999.000000
*  2005 04 18 05 39 00.00000000
PL06    348.885859  -1499.041914   6549.972455 999999.000000
*  2005 04 18 05 39 30.00000000
PL06    343.340270  -1273.955431   6597.647974 999999.000000
*  2005 04 18 05 40 00.00000000
PL06    338.382477  -1047.359950   6637.574018 999999.000000
*  2005 04 18 05 40 30.00000000
PL06    334.024287   -819.522441   6669.704088 999999.000000
*  2005 04 18 05 41 00.00000000
PL06    330.275634   -590.711341   6694.000772 999999.000000
*  2005 04 18 05 41 30.00000000
PL06    327.144568   -361.196246   6710.435800 999999.000000
*  2005 04 18 05 42 00.00000000
PL06    324.637237   -131.247580   6718.990081 999999.000000
*  2005 04 18 05 42 30.00000000
PL06    322.757873     98.863725   6719.653719 999999.000000
*  2005 04 18 05 43 00.00000000
PL06    321.508785    328.866544   6712.426012 999999.000000
*  2005 04 18 05 43 30.00000000
PL06    320.890354    558.489871   6697.315466 999999.000000
*  2005 04 18 05 44 00.00000000
PL06    320.901032    787.463143   6674.339780 999999.000000
*  2005 04 18 05 44 30.00000000
PL06    321.537356   1015.516559   6643.525830 999999.000000
*  2005 04 18 05 45 00.00000000
PL06    322.793949   1242.381396   6604.909643 999999.000000
*  2005 04 18 05 45 30.00000000
PL06    324.663544   1467.790343   6558.536344 999999.000000
*  2005 04 18 05 46 00.00000000
PL06    327.136990   1691.477798   6504.460094 999999.000000
*  2005 04 18 05 46 30.00000000
PL06    330.203272   1913.180171   6442.744035 999999.000000
*  2005 04 18 05 47 00.00000000
PL06    333.849533   2132.636194   6373.460222 999999.000000
*  2005 04 18 05 47 30.00000000
PL06    338.061097   2349.587222   6296.689559 999999.000000
*  2005 04 18 05 48 00.00000000
PL06    342.821501   2563.777550   6212.521706 999999.000000
*  2005 04 18 05 48 30.00000000
PL06    348.112530   2774.954710   6121.054988 999999.000000
*  2005 04 18 05 49 00.00000000
PL06    353.914249   2982.869780   6022.396286 999999.000000
*  2005 04 18 05 49 30.00000000
PL06    360.205045   3187.277684   5916.660919 999999.000000
*  2005 04 18 05 50 00.00000000
PL06    366.961666   3387.937484   5803.972509 999999.000000
*  2005 04 18 05 50 30.00000000
PL06    374.159270   3584.612669   5684.462847 999999.000000
*  2005 04 18 05 51 00.00000000
PL06    381.771474   3777.071435   5558.271733 999999.000000
*  2005 04 18 05 51 30.00000000
PL06    389.770395   3965.086955   5425.546834 999999.000000
*  2005 04 18 05 52 00.00000000
PL06    398.126718   4148.437658   5286.443523 999999.000000
*  2005 04 18 05 52 30.00000000
PL06    406.809751   4326.907504   5141.124703 999999.000000
*  2005 04 18 05 53 00.00000000
PL06    415.787491   4500.286240   4989.760628 999999.000000
*  2005 04 18 05 53 30.00000000
PL06    425.026698   4668.369684   4832.528717 999999.000000
*  2005 04 18 05 54 00.00000000
PL06    434.492958   4830.959976   4669.613325 999999.000000
*  2005 04 18 05 54 30.00000000
PL06    444.150728   4987.865802   4501.205509 999999.000000
*  2005 04 18 05 55 00.00000000
PL06    453.963405   5138.902620   4327.502846 999999.000000
*  2005 04 18 05 55 30.00000000
PL06    463.893403   5283.892919   4148.709162 999999.000000
*  2005 04 18 05 56 00.00000000
PL06    473.902233   5422.666351   3965.034274 999999.000000
*  2005 04 18 05 56 30.00000000
PL06    483.950588   5555.059926   3776.693843 999999.000000
*  2005 04 18 05 57 00.00000000
PL06    493.998423   5680.918288   3583.909164 999999.000000
*  2005 04 18 05 57 30.00000000
PL06    504.005018   5800.093952   3386.906867 999999.000000
*  2005 04 18 05 58 00.00000000
PL06    513.929069   5912.447491   3185.918654 999999.000000
*  2005 04 18 05 58 30.00000000
PL06    523.728777   6017.847772   2981.181007 999999.000000
*  2005 04 18 05 59 00.00000000
PL06    533.361978   6116.172105   2772.934792 999999.000000
*  2005 04 18 05 59 30.00000000
PL06    542.786200   6207.306246   2561.424967 999999.000000
*  2005 04 18 06 00 00.00000000
PL06    551.958729   6291.144553   2346.900417 999999.000000
*  2005 04 18 06 00 30.00000000
PL06    560.836707   6367.590196   2129.613649 999999.000000
*  2005 04 18 06 01 00.00000000
PL06    569.377211   6436.555292   1909.820456 999999.000000
*  2005 04 18 06 01 30.00000000
PL06    577.537352   6497.961003   1687.779579 999999.000000
*  2005 04 18 06 02 00.00000000
PL06    585.274359   6551.737594   1463.752393 999999.000000
*  2005 04 18 06 02 30.00000000
PL06    592.545689   6597.824518   1238.002613 999999.000000
*  2005 04 18 06 03 00.00000000
PL06    599.309106   6636.170495   1010.795983 999999.000000
*  2005 04 18 06 03 30.00000000
PL06    605.522781   6666.733580    782.399948 999999.000000
*  2005 04 18 06 04 00.00000000
PL06    611.145378   6689.481215    553.083335 999999.000000
*  2005 04 18 06 04 30.00000000
PL06    616.136142   6704.390266    323.116012 999999.000000
*  2005 04 18 06 05 00.00000000
PL06    620.454996   6711.447040     92.768560 999999.000000
*  2005 04 18 06 05 30.00000000
PL06    624.062627   6710.647289   -137.688054 999999.000000
*  2005 04 18 06 06 00.00000000
PL06    626.920574   6701.996210   -367.982800 999999.000000
*  2005 04 18 06 06 30.00000000
PL06    628.991309   6685.508432   -597.844916 999999.000000
*  2005 04 18 06 07 00.00000000
PL06    630.238318   6661.207993   -827.004238 999999.000000
*  2005 04 18 06 07 30.00000000
PL06    630.626191   6629.128293  -1055.191526 999999.000000
*  2005 04 18 06 08 00.00000000
PL06    630.120695   6589.312047  -1282.138786 999999.000000
*  2005 04 18 06 08 30.00000000
PL06    628.688860   6541.811224  -1507.579598 999999.000000
*  2005 04 18 06 09 00.00000000
PL06    626.299045   6486.686971  -1731.249436 999999.000000
*  2005 04 18 06 09 30.00000000
PL06    622.921020   6424.009515  -1952.885988 999999.000000
*  2005 04 18 06 10 00.00000000
PL06    618.526036   6353.858069  -2172.229466 999999.000000
*  2005 04 18 06 10 30.00000000
PL06    613.086900   6276.320715  -2389.022917 999999.000000
*  2005 04 18 06 11 00.00000000
PL06    606.578045   6191.494279  -2603.012522 999999.000000
*  2005 04 18 06 11 30.00000000
PL06    598.975591   6099.484213  -2813.947897 999999.000000
EOF
